{
    "links": {
        "self": "http://www.neowsapp.com/rest/v1/neo/54017138?api_key=iIulBulltgU6a56xZRHN4H3l9WmuAYTsLGpBGhQ2"
    },
    "id": "54017138",
    "neo_reference_id": "54017138",
    "name": "(2020 KC2)",
    "designation": "2020 KC2",
    "nasa_jpl_url": "http://ssd.jpl.nasa.gov/sbdb.cgi?sstr=54017138",
    "absolute_magnitude_h": 23.431,
    "estimated_diameter": {
        "kilometers": {
            "estimated_diameter_min": 0.0547463257,
            "estimated_diameter_max": 0.1224165057
        },
        "meters": {
            "estimated_diameter_min": 54.746325674,
            "estimated_diameter_max": 122.4165057253
        },
        "miles": {
            "estimated_diameter_min": 0.0340177791,
            "estimated_diameter_max": 0.0760660666
        },
        "feet": {
            "estimated_diameter_min": 179.6139351241,
            "estimated_diameter_max": 401.6289686438
        }
    },
    "is_potentially_hazardous_asteroid": false,
    "close_approach_data": [
        {
            "close_approach_date": "2019-12-30",
            "close_approach_date_full": "2019-Dec-30 20:12",
            "epoch_date_close_approach": 1577736720000,
            "relative_velocity": {
                "kilometers_per_second": "11.6849155584",
                "kilometers_per_hour": "42065.6960102422",
                "miles_per_hour": "26137.9876125863"
            },
            "miss_distance": {
                "astronomical": "0.4608799508",
                "lunar": "179.2823008612",
                "kilometers": "68946658.965384796",
                "miles": "42841467.2958543448"
            },
            "orbiting_body": "Earth"
        },
        {
            "close_approach_date": "2020-04-26",
            "close_approach_date_full": "2020-Apr-26 12:27",
            "epoch_date_close_approach": 1587904020000,
            "relative_velocity": {
                "kilometers_per_second": "12.6846473401",
                "kilometers_per_hour": "45664.7304243337",
                "miles_per_hour": "28374.2876350534"
            },
            "miss_distance": {
                "astronomical": "0.1738937033",
                "lunar": "67.6446505837",
                "kilometers": "26014127.620091971",
                "miles": "16164429.3485763598"
            },
            "orbiting_body": "Earth"
        }
    ],
    "orbital_data": {
        "orbit_id": "1",
        "orbit_determination_date": "2020-05-21 03:14:00",
        "first_observation_date": "2020-05-17",
        "last_observation_date": "2020-05-21",
        "data_arc_in_days": 4,
        "observations_used": 16,
        "orbit_uncertainty": "8",
        "minimum_orbit_intersection": ".143219",
        "jupiter_tisserand_invariant": "4.557",
        "epoch_osculation": "2458988.5",
        "eccentricity": ".2656854162939105",
        "semi_major_axis": "1.431494069827943",
        "inclination": "24.25309973104864",
        "ascending_node_longitude": "223.5377516618505",
        "orbital_period": "625.5798573734799",
        "perihelion_distance": "1.051166971963442",
        "perihelion_argument": "302.1191670113895",
        "aphelion_distance": "1.811821167692445",
        "perihelion_time": "2458908.723649851339",
        "mean_anomaly": "45.90858499520395",
        "mean_motion": ".5754660987830927",
        "equinox": "J2000",
        "orbit_class": {
            "orbit_class_type": "AMO",
            "orbit_class_description": "Near-Earth asteroid orbits similar to that of 1221 Amor",
            "orbit_class_range": "1.017 AU < q (perihelion) < 1.3 AU"
        }
    },
    "is_sentry_object": false
}